{
  "norad_id": 59523,
  "name": "STARLINK-31476",
  "history": [
    {
      "epoch": "2026-03-28T15:35:59.512704",
      "apogee_km": 483.6170011582035,
      "perigee_km": 482.4245319383781,
      "latitude_deg": 13.345527322276258,
      "longitude_deg": -165.30054144002497,
      "semi_major_axis_km": 6861.157766548291,
      "eccentricity": 8.69e-05,
      "inclination_deg": 43.0036,
      "raan_deg": 211.0875,
      "arg_perigee_deg": 256.6543,
      "mean_anomaly_deg": 103.4212,
      "mean_motion_rev_day": 15.27589461
    },
    {
      "epoch": "2026-03-29T01:00:57.331872",
      "apogee_km": 483.23272260806516,
      "perigee_km": 482.9761121790543,
      "latitude_deg": 13.583125104737649,
      "longitude_deg": -127.6362979200203,
      "semi_major_axis_km": 6861.2414173935595,
      "eccentricity": 1.87e-05,
      "inclination_deg": 43.0044,
      "raan_deg": 208.8723,
      "arg_perigee_deg": 123.1636,
      "mean_anomaly_deg": 236.9234,
      "mean_motion_rev_day": 15.27561525
    }
  ]
}